{"type":"FeatureCollection","features":[{"type":"Feature","properties":{"component":"233331393","name":"南港車站","osmType":"way","osmId":233331393,"license":"ODbL-1.0","retrievedAt":"2026-09-06"},"geometry":{"type":"Polygon","coordinates":[[[121.6065819,25.0534989],[121.6069958,25.0535698],[121.6070121,25.0534978],[121.6070576,25.0535053],[121.607109,25.0535856],[121.6075122,25.0536476],[121.6075545,25.0534308],[121.6072856,25.0533938],[121.6072979,25.0533241],[121.6073062,25.0532772],[121.6073299,25.0531361],[121.6075322,25.0531706],[121.6076099,25.0528267],[121.6076262,25.0527547],[121.6069365,25.0526461],[121.6067709,25.0526201],[121.6065124,25.0525795],[121.6065635,25.0522794],[121.6064598,25.0522626],[121.6056616,25.0521334],[121.6056439,25.0522256],[121.6055917,25.0524978],[121.6055518,25.0527089],[121.6055214,25.0528688],[121.6063541,25.0530062],[121.606385,25.052866],[121.6066574,25.0529137],[121.6066234,25.0530342],[121.6069793,25.0530809],[121.6069565,25.05322],[121.6069463,25.053272],[121.6069373,25.0533244],[121.6066241,25.053282],[121.6065819,25.0534989]]]}},{"type":"Feature","properties":{"component":"908843920","name":"南港 A 棟","osmType":"way","osmId":908843920,"license":"ODbL-1.0","retrievedAt":"2026-09-06"},"geometry":{"type":"Polygon","coordinates":[[[121.6067929,25.0530115],[121.607331,25.0530991],[121.6073528,25.0529895],[121.6074082,25.0529985],[121.6074261,25.0529089],[121.6073661,25.0528991],[121.6073881,25.0527883],[121.6068545,25.0527014],[121.6067929,25.0530115]]]}},{"type":"Feature","properties":{"component":"411044008","name":"南港 B 棟","osmType":"way","osmId":411044008,"license":"ODbL-1.0","retrievedAt":"2026-09-06"},"geometry":{"type":"Polygon","coordinates":[[[121.6056026,25.0524712],[121.6055356,25.0528194],[121.6063584,25.0529509],[121.6064263,25.052602],[121.6056026,25.0524712]]]}},{"type":"Feature","properties":{"component":"410390808","name":"南港 C 棟","osmType":"way","osmId":410390808,"license":"ODbL-1.0","retrievedAt":"2026-09-06"},"geometry":{"type":"Polygon","coordinates":[[[121.604546,25.0526181],[121.6045832,25.0526303],[121.6045767,25.0526719],[121.6045724,25.0526984],[121.6051044,25.0527671],[121.6051218,25.0526462],[121.6053289,25.0526765],[121.6054129,25.0526889],[121.6055518,25.0527089],[121.6055917,25.0524978],[121.605445,25.0524778],[121.6053612,25.0524658],[121.6051572,25.0524365],[121.6051662,25.0523994],[121.6046312,25.052328],[121.6046263,25.0523583],[121.6045748,25.0523648],[121.6045302,25.0523856],[121.6044954,25.0524184],[121.6044741,25.0524596],[121.6044686,25.0525053],[121.6044799,25.0525501],[121.6045067,25.0525891],[121.604546,25.0526181]]]}},{"type":"Feature","properties":{"component":"556511660","name":"南港東側站房","osmType":"way","osmId":556511660,"license":"ODbL-1.0","retrievedAt":"2026-09-06"},"geometry":{"type":"Polygon","coordinates":[[[121.6080419,25.0528326],[121.6088183,25.052956],[121.6087506,25.053329],[121.6085623,25.053301],[121.6085817,25.0531915],[121.6085244,25.0531795],[121.6084729,25.0531578],[121.6084212,25.0531273],[121.6083867,25.0530949],[121.6080964,25.0530423],[121.6080873,25.0530557],[121.608071,25.0530678],[121.6080512,25.0530744],[121.6080302,25.0530749],[121.6080101,25.0530691],[121.6079933,25.0530578],[121.6079815,25.0530423],[121.6079758,25.0530241],[121.6079769,25.0530052],[121.6079847,25.0529876],[121.6079983,25.0529733],[121.6080161,25.0529639],[121.6080325,25.0528808],[121.6080419,25.0528326]]]}}]}
