{
  "type": "Feature",
  "properties": {
    "osmId": 1159328965,
    "name": "台北101"
  },
  "geometry": {
    "type": "Polygon",
    "coordinates": [
      [
        [
          121.5638833,
          25.0345473
        ],
        [
          121.5638708,
          25.0340092
        ],
        [
          121.563864,
          25.0337137
        ],
        [
          121.5638634,
          25.0336843
        ],
        [
          121.5638626,
          25.0336503
        ],
        [
          121.5638583,
          25.0334672
        ],
        [
          121.5639777,
          25.0334649
        ],
        [
          121.5639772,
          25.0334429
        ],
        [
          121.5639763,
          25.0334021
        ],
        [
          121.5640471,
          25.0334008
        ],
        [
          121.5641188,
          25.0333994
        ],
        [
          121.5641197,
          25.0334403
        ],
        [
          121.5641202,
          25.0334622
        ],
        [
          121.5642445,
          25.0334599
        ],
        [
          121.5642464,
          25.0335443
        ],
        [
          121.5644871,
          25.0335397
        ],
        [
          121.5644836,
          25.0333845
        ],
        [
          121.5647106,
          25.0333802
        ],
        [
          121.5647111,
          25.0333992
        ],
        [
          121.5647455,
          25.0333986
        ],
        [
          121.5647448,
          25.033372
        ],
        [
          121.5647445,
          25.0333585
        ],
        [
          121.5647428,
          25.0332826
        ],
        [
          121.5648023,
          25.0332814
        ],
        [
          121.5648611,
          25.0332803
        ],
        [
          121.5648629,
          25.0333563
        ],
        [
          121.5648632,
          25.0333697
        ],
        [
          121.5648638,
          25.0333963
        ],
        [
          121.5648975,
          25.0333957
        ],
        [
          121.5648971,
          25.0333767
        ],
        [
          121.5651216,
          25.0333724
        ],
        [
          121.565127,
          25.0336073
        ],
        [
          121.5651453,
          25.033607
        ],
        [
          121.565233,
          25.0336053
        ],
        [
          121.5652343,
          25.0336604
        ],
        [
          121.5652356,
          25.0337159
        ],
        [
          121.5651478,
          25.0337176
        ],
        [
          121.5651296,
          25.0337179
        ],
        [
          121.565135,
          25.0339524
        ],
        [
          121.5649646,
          25.0339556
        ],
        [
          121.5649697,
          25.0341766
        ],
        [
          121.565062,
          25.0341748
        ],
        [
          121.5650644,
          25.0342826
        ],
        [
          121.5650793,
          25.0342823
        ],
        [
          121.5651312,
          25.0342813
        ],
        [
          121.5651328,
          25.0343512
        ],
        [
          121.5651344,
          25.0344193
        ],
        [
          121.5650824,
          25.0344203
        ],
        [
          121.5650676,
          25.0344206
        ],
        [
          121.5650701,
          25.0345247
        ],
        [
          121.5648657,
          25.0345286
        ],
        [
          121.5648295,
          25.0345293
        ],
        [
          121.5647949,
          25.03453
        ],
        [
          121.5645936,
          25.0345338
        ],
        [
          121.5645919,
          25.0345528
        ],
        [
          121.5645903,
          25.0345718
        ],
        [
          121.5645891,
          25.034586
        ],
        [
          121.5645952,
          25.0346057
        ],
        [
          121.5645646,
          25.0346063
        ],
        [
          121.5644768,
          25.0346079
        ],
        [
          121.5643891,
          25.0346096
        ],
        [
          121.5643551,
          25.0346102
        ],
        [
          121.5643602,
          25.0345903
        ],
        [
          121.5643584,
          25.0345762
        ],
        [
          121.5643559,
          25.0345574
        ],
        [
          121.5643534,
          25.0345384
        ],
        [
          121.5641556,
          25.0345421
        ],
        [
          121.5641195,
          25.0345428
        ],
        [
          121.5640831,
          25.0345435
        ],
        [
          121.5638833,
          25.0345473
        ]
      ]
    ]
  }
}
