{
  "type": "Feature",
  "properties": {
    "osmId": 189788192,
    "name": "國父紀念館"
  },
  "geometry": {
    "type": "Polygon",
    "coordinates": [
      [
        [
          121.5607858,
          25.0396031
        ],
        [
          121.5608122,
          25.0395125
        ],
        [
          121.5607141,
          25.0395423
        ],
        [
          121.5604497,
          25.0395502
        ],
        [
          121.5604226,
          25.0394925
        ],
        [
          121.5604102,
          25.0394928
        ],
        [
          121.560274,
          25.0394969
        ],
        [
          121.5601386,
          25.0395009
        ],
        [
          121.5601259,
          25.0395013
        ],
        [
          121.560103,
          25.0395606
        ],
        [
          121.5598368,
          25.0395685
        ],
        [
          121.5597368,
          25.0395445
        ],
        [
          121.5597697,
          25.0396334
        ],
        [
          121.5597817,
          25.0399632
        ],
        [
          121.5597843,
          25.0400332
        ],
        [
          121.5597868,
          25.040103
        ],
        [
          121.5597989,
          25.040436
        ],
        [
          121.5597725,
          25.0405267
        ],
        [
          121.5598706,
          25.0404968
        ],
        [
          121.5600324,
          25.040492
        ],
        [
          121.5600813,
          25.0404905
        ],
        [
          121.5601373,
          25.0404889
        ],
        [
          121.5603102,
          25.0404837
        ],
        [
          121.5604851,
          25.0404785
        ],
        [
          121.5605423,
          25.0404768
        ],
        [
          121.5605896,
          25.0404754
        ],
        [
          121.5607478,
          25.0404706
        ],
        [
          121.5608479,
          25.0404946
        ],
        [
          121.5608149,
          25.0404057
        ],
        [
          121.5608028,
          25.0400727
        ],
        [
          121.5608005,
          25.0400105
        ],
        [
          121.5607977,
          25.0399329
        ],
        [
          121.5607858,
          25.0396031
        ]
      ]
    ]
  }
}
