{"type":"FeatureCollection","features":[{"type":"Feature","properties":{"component":"386900387","name":"臺東車站","osmType":"way","osmId":386900387,"license":"ODbL-1.0","retrievedAt":"2026-09-06"},"geometry":{"type":"Polygon","coordinates":[[[121.1229466,22.794185],[121.1231785,22.7941597],[121.1231628,22.7940359],[121.123146,22.7939039],[121.1231336,22.7938074],[121.1231194,22.7936979],[121.1231035,22.7935731],[121.12309,22.7934673],[121.1230788,22.7933789],[121.1228464,22.7934043],[121.1228713,22.7935984],[121.1229139,22.7939294],[121.1229466,22.794185]]]}},{"type":"Feature","properties":{"component":"724860888","name":"前廊雨棚","osmType":"way","osmId":724860888,"license":"ODbL-1.0","retrievedAt":"2026-09-06"},"geometry":{"type":"Polygon","coordinates":[[[121.1231695,22.7938034],[121.1231553,22.793694],[121.1231254,22.7934635],[121.1231115,22.7933469],[121.1231482,22.793343],[121.1233431,22.7933224],[121.1234468,22.7941197],[121.1232826,22.794138],[121.1232137,22.7941453],[121.1231992,22.7940319],[121.1231695,22.7938034]]]}},{"type":"Feature","properties":{"component":"386900423","name":"月台棚","osmType":"way","osmId":386900423,"license":"ODbL-1.0","retrievedAt":"2026-09-06"},"geometry":{"type":"Polygon","coordinates":[[[121.1226691,22.7944404],[121.1227634,22.7944301],[121.1225021,22.7924131],[121.1224077,22.7924235],[121.1226691,22.7944404]]]}},{"type":"Feature","properties":{"component":"386900424","name":"月台棚","osmType":"way","osmId":386900424,"license":"ODbL-1.0","retrievedAt":"2026-09-06"},"geometry":{"type":"Polygon","coordinates":[[[121.1222475,22.792441],[121.1223411,22.7924307],[121.1226173,22.7945603],[121.1225236,22.7945706],[121.1222475,22.792441]]]}},{"type":"Feature","properties":{"component":"386900425","name":"月台棚","osmType":"way","osmId":386900425,"license":"ODbL-1.0","retrievedAt":"2026-09-06"},"geometry":{"type":"Polygon","coordinates":[[[121.1221766,22.7924511],[121.1220741,22.7924624],[121.1223369,22.7944892],[121.1224395,22.7944779],[121.1221766,22.7924511]]]}}]}
