{"type":"FeatureCollection","features":[{"type":"Feature","properties":{"component":"442234244","name":"臺中車站","osmType":"way","osmId":442234244,"license":"ODbL-1.0","retrievedAt":"2026-09-06"},"geometry":{"type":"Polygon","coordinates":[[[120.6880693,24.1374488],[120.6879602,24.1374002],[120.6878072,24.1373319],[120.6876369,24.137256],[120.6872527,24.1370795],[120.6872622,24.1369853],[120.6867032,24.136753],[120.6866923,24.136777],[120.6866839,24.136808],[120.6862951,24.1366573],[120.6858947,24.1365022],[120.6854501,24.1363507],[120.6854622,24.1366198],[120.6856583,24.1367046],[120.6864534,24.1370485],[120.6864134,24.1371389],[120.6864093,24.137147],[120.6863913,24.1371822],[120.6863433,24.1372765],[120.6860367,24.1372692],[120.6860428,24.1373672],[120.686004,24.1374489],[120.6859386,24.1375867],[120.6861533,24.1376197],[120.6861405,24.1376325],[120.686275,24.1376795],[120.6862793,24.1376933],[120.6863194,24.1377534],[120.6863429,24.1377485],[120.6863953,24.1377708],[120.6864337,24.1377872],[120.6865081,24.1378203],[120.6865138,24.1378219],[120.686532,24.1378268],[120.6866643,24.1378339],[120.6867041,24.1378291],[120.6867912,24.1378186],[120.6869259,24.1375113],[120.6869663,24.1374192],[120.6869814,24.1373847],[120.6869879,24.1373699],[120.688172,24.1378592],[120.6882048,24.1377079],[120.6882135,24.1376664],[120.6881884,24.1376091],[120.6880693,24.1374488]]]}},{"type":"Feature","properties":{"component":"223056023","name":"臺中驛","osmType":"way","osmId":223056023,"license":"ODbL-1.0","retrievedAt":"2026-09-06"},"geometry":{"type":"Polygon","coordinates":[[[120.6849758,24.1368727],[120.6850336,24.136751],[120.6852572,24.1368394],[120.6853116,24.1368609],[120.6853436,24.1368736],[120.6853656,24.1368826],[120.685557,24.136958],[120.6854992,24.1370797],[120.6853088,24.1370044],[120.6852506,24.1369814],[120.6851961,24.1369598],[120.6849758,24.1368727]]]}}]}
