{"type":"FeatureCollection","features":[{"type":"Feature","properties":{"component":"554768918","name":"花蓮跨站大廳","osmType":"way","osmId":554768918,"license":"ODbL-1.0","retrievedAt":"2026-09-06"},"geometry":{"type":"Polygon","coordinates":[[[121.6002749,23.9937002],[121.6002421,23.9937136],[121.6001515,23.9937508],[121.6002059,23.9938617],[121.6003926,23.9937851],[121.6004064,23.9937942],[121.6008953,23.9935937],[121.6011141,23.9935337],[121.6011398,23.9935267],[121.6012088,23.9935078],[121.6012735,23.99349],[121.601283,23.9934874],[121.6013662,23.9934533],[121.6015001,23.9933984],[121.6015087,23.9933949],[121.6015645,23.993372],[121.601552,23.9933467],[121.6015093,23.9932597],[121.6015483,23.9932437],[121.6015226,23.9931915],[121.6015183,23.9931826],[121.6014221,23.9929868],[121.6013187,23.9930292],[121.6011848,23.9930841],[121.6010926,23.9931219],[121.6010315,23.993147],[121.6009521,23.9931736],[121.6010313,23.9933823],[121.6003969,23.9936425],[121.6003229,23.9936775],[121.6002749,23.9937002]]]}},{"type":"Feature","properties":{"component":"554768913","name":"花蓮售票大廳","osmType":"way","osmId":554768913,"license":"ODbL-1.0","retrievedAt":"2026-09-06"},"geometry":{"type":"Polygon","coordinates":[[[121.6018392,23.9936022],[121.6018749,23.9935875],[121.6018685,23.9935744],[121.6019015,23.9935609],[121.6018244,23.993404],[121.6020141,23.9933262],[121.6019651,23.9932264],[121.6019364,23.993168],[121.6019286,23.9931712],[121.6019092,23.9931792],[121.6019002,23.993161],[121.6016931,23.9932459],[121.6016679,23.9931946],[121.6016422,23.9931424],[121.601609,23.993156],[121.6015226,23.9931915],[121.6015483,23.9932437],[121.6015093,23.9932597],[121.601552,23.9933467],[121.6015645,23.993372],[121.6015087,23.9933949],[121.6015552,23.9934896],[121.601611,23.9934667],[121.601614,23.9934727],[121.601653,23.9934567],[121.601739,23.9936318],[121.6017437,23.9936414],[121.6018392,23.9936022]]]}},{"type":"Feature","properties":{"component":"718223887","name":"迎客大傘","osmType":"way","osmId":718223887,"license":"ODbL-1.0","retrievedAt":"2026-09-06"},"geometry":{"type":"Polygon","coordinates":[[[121.6019002,23.993161],[121.6019482,23.9931413],[121.6018651,23.9929721],[121.6018827,23.9929649],[121.6016689,23.9925298],[121.6016513,23.992537],[121.6014643,23.9926137],[121.6014326,23.9926267],[121.6014246,23.99263],[121.6013962,23.9926416],[121.6014725,23.9927971],[121.6016422,23.9931424],[121.6016679,23.9931946],[121.6016931,23.9932459],[121.6019002,23.993161]]]}},{"type":"Feature","properties":{"component":"132937553","name":"花蓮前站","osmType":"way","osmId":132937553,"license":"ODbL-1.0","retrievedAt":"2026-09-06"},"geometry":{"type":"Polygon","coordinates":[[[121.6013962,23.9926416],[121.6014725,23.9927971],[121.6013529,23.9928461],[121.6011588,23.992451],[121.6010192,23.9921669],[121.6010592,23.9921505],[121.6010383,23.992108],[121.6011407,23.9920661],[121.6011616,23.9921086],[121.6011752,23.992103],[121.6012039,23.9921613],[121.6012138,23.9921572],[121.6012397,23.9922098],[121.6012297,23.9922139],[121.6012606,23.9922767],[121.6012705,23.9922727],[121.6012949,23.9923222],[121.601285,23.9923263],[121.60133,23.992418],[121.6013399,23.9924139],[121.6013629,23.9924606],[121.601353,23.9924647],[121.6014026,23.9925658],[121.6014126,23.9925617],[121.6014398,23.9926172],[121.6014299,23.9926212],[121.6014326,23.9926267],[121.6014246,23.99263],[121.6013962,23.9926416]]]}},{"type":"Feature","properties":{"component":"132937567","name":"花蓮後站","osmType":"way","osmId":132937567,"license":"ODbL-1.0","retrievedAt":"2026-09-06"},"geometry":{"type":"Polygon","coordinates":[[[121.6002059,23.9938617],[121.6001515,23.9937508],[121.6000592,23.993563],[121.6000243,23.9935773],[121.600015,23.9935582],[121.5999777,23.9935735],[121.5998512,23.9936254],[121.5999118,23.9937487],[121.5999015,23.9937529],[121.5999705,23.9938935],[121.6000023,23.9939581],[121.6000394,23.9940336],[121.6000498,23.9940294],[121.6001027,23.9941372],[121.6002379,23.9940817],[121.6002665,23.99407],[121.6002587,23.9940543],[121.6002834,23.9940442],[121.6002936,23.99404],[121.6002696,23.9939912],[121.6002352,23.9939213],[121.6002059,23.9938617]]]}},{"type":"Feature","properties":{"component":"1342634750","name":"月台棚","osmType":"way","osmId":1342634750,"license":"ODbL-1.0","retrievedAt":"2026-09-06"},"geometry":{"type":"Polygon","coordinates":[[[121.6004006,23.9914881],[121.6003214,23.9915253],[121.6010466,23.9930282],[121.6010926,23.9931219],[121.6011848,23.9930841],[121.6004006,23.9914881]]]}},{"type":"Feature","properties":{"component":"1342634751","name":"月台棚","osmType":"way","osmId":1342634751,"license":"ODbL-1.0","retrievedAt":"2026-09-06"},"geometry":{"type":"Polygon","coordinates":[[[121.6002473,23.991551],[121.6001746,23.9915863],[121.6007045,23.9927167],[121.6009521,23.9931736],[121.6010315,23.993147],[121.6002473,23.991551]]]}},{"type":"Feature","properties":{"component":"1352337182","name":"月台棚","osmType":"way","osmId":1352337182,"license":"ODbL-1.0","retrievedAt":"2026-09-06"},"geometry":{"type":"Polygon","coordinates":[[[121.6006378,23.9913908],[121.6005345,23.9914332],[121.6013187,23.9930292],[121.6014221,23.9929868],[121.6013529,23.9928461],[121.6011588,23.992451],[121.6010192,23.9921669],[121.6009606,23.9920476],[121.6007911,23.9917027],[121.6006378,23.9913908]]]}}]}
