{
  "type": "Feature",
  "properties": {
    "osmId": 204711206,
    "name": "新光摩天大樓"
  },
  "geometry": {
    "type": "Polygon",
    "coordinates": [
      [
        [
          121.5151451,
          25.0462953
        ],
        [
          121.5151453,
          25.0462726
        ],
        [
          121.5151398,
          25.0462726
        ],
        [
          121.515109,
          25.0462723
        ],
        [
          121.5151093,
          25.046245
        ],
        [
          121.5151095,
          25.0462206
        ],
        [
          121.5151116,
          25.0460194
        ],
        [
          121.5151124,
          25.0459362
        ],
        [
          121.5151133,
          25.0458485
        ],
        [
          121.5151153,
          25.0456538
        ],
        [
          121.5151155,
          25.0456276
        ],
        [
          121.5151158,
          25.0456017
        ],
        [
          121.5151442,
          25.045602
        ],
        [
          121.515176,
          25.0456022
        ],
        [
          121.5152223,
          25.0456026
        ],
        [
          121.5154405,
          25.0456044
        ],
        [
          121.5154531,
          25.0456045
        ],
        [
          121.5154831,
          25.0456048
        ],
        [
          121.5155143,
          25.0456051
        ],
        [
          121.5155141,
          25.0456285
        ],
        [
          121.5155138,
          25.0456546
        ],
        [
          121.5155081,
          25.0462234
        ],
        [
          121.5155078,
          25.0462501
        ],
        [
          121.5155075,
          25.0462756
        ],
        [
          121.515477,
          25.0462754
        ],
        [
          121.5154713,
          25.0462753
        ],
        [
          121.5154711,
          25.0462989
        ],
        [
          121.5154689,
          25.0463036
        ],
        [
          121.5154657,
          25.046308
        ],
        [
          121.5154617,
          25.0463117
        ],
        [
          121.5154571,
          25.0463148
        ],
        [
          121.5154519,
          25.0463171
        ],
        [
          121.5154464,
          25.0463186
        ],
        [
          121.5154407,
          25.0463194
        ],
        [
          121.5154246,
          25.0463206
        ],
        [
          121.515379,
          25.0463199
        ],
        [
          121.5153788,
          25.0463382
        ],
        [
          121.5153589,
          25.046338
        ],
        [
          121.5153588,
          25.046356
        ],
        [
          121.5153497,
          25.0463608
        ],
        [
          121.5153401,
          25.0463645
        ],
        [
          121.51533,
          25.0463673
        ],
        [
          121.5153197,
          25.0463689
        ],
        [
          121.5153092,
          25.0463693
        ],
        [
          121.5152987,
          25.0463687
        ],
        [
          121.5152885,
          25.0463669
        ],
        [
          121.5152785,
          25.046364
        ],
        [
          121.5152689,
          25.04636
        ],
        [
          121.5152599,
          25.0463551
        ],
        [
          121.5152601,
          25.0463372
        ],
        [
          121.5152399,
          25.046337
        ],
        [
          121.5152401,
          25.0463178
        ],
        [
          121.5151975,
          25.0463172
        ],
        [
          121.5151877,
          25.046316
        ],
        [
          121.5151793,
          25.0463149
        ],
        [
          121.5151731,
          25.0463135
        ],
        [
          121.5151675,
          25.0463122
        ],
        [
          121.5151616,
          25.04631
        ],
        [
          121.5151569,
          25.0463079
        ],
        [
          121.5151526,
          25.0463053
        ],
        [
          121.5151481,
          25.0463009
        ],
        [
          121.5151451,
          25.0462953
        ]
      ]
    ]
  }
}
