{"type":"FeatureCollection","features":[{"type":"Feature","properties":{"component":"r14940189","name":"高雄天棚","osmType":"relation","osmId":14940189,"license":"ODbL-1.0","retrievedAt":"2026-09-06"},"geometry":{"type":"Polygon","coordinates":[[[120.3019696,22.6382597],[120.3019312,22.6382312],[120.3019052,22.6381925],[120.3018948,22.6381481],[120.301901,22.638103],[120.3019233,22.6380624],[120.301959,22.638031],[120.302004,22.6380125],[120.3020303,22.6380106],[120.3020531,22.6380089],[120.3021007,22.6380207],[120.3021413,22.6380466],[120.3021701,22.6380834],[120.302184,22.6381271],[120.3021812,22.6381725],[120.3021786,22.6382274],[120.3021862,22.6382819],[120.3022037,22.6383344],[120.3022308,22.6383834],[120.3022664,22.6384273],[120.3023097,22.6384651],[120.3023591,22.6384958],[120.3024192,22.6385185],[120.302483,22.6385295],[120.302548,22.6385286],[120.3026114,22.6385157],[120.3026707,22.6384913],[120.3027236,22.6384565],[120.3027678,22.6384127],[120.3028058,22.6383619],[120.3028355,22.6383064],[120.3028576,22.6382481],[120.3028717,22.6381876],[120.3028728,22.6381761],[120.3028777,22.638126],[120.3028741,22.6380646],[120.3028718,22.6380233],[120.3028886,22.6379849],[120.3029215,22.6379568],[120.3029641,22.6379441],[120.3030086,22.6379493],[120.3030465,22.6379714],[120.3030708,22.6380062],[120.3030768,22.6380472],[120.3030634,22.6380867],[120.3030332,22.6381172],[120.303001,22.638149],[120.3029746,22.6381851],[120.3029548,22.6382246],[120.302942,22.6382665],[120.3029364,22.6383098],[120.3029384,22.6383533],[120.3029478,22.6383959],[120.3029643,22.6384367],[120.3030082,22.6385077],[120.303042,22.6385366],[120.3030767,22.6385478],[120.3031172,22.63855],[120.3031467,22.6385456],[120.30318,22.6385352],[120.3032159,22.6385196],[120.3032518,22.6385071],[120.303274,22.6385111],[120.3032921,22.6385215],[120.3033048,22.6385465],[120.303308,22.6385721],[120.3032974,22.638599],[120.3032801,22.6386228],[120.3032589,22.6386335],[120.3032243,22.6386319],[120.3031995,22.6386221],[120.3031722,22.6386106],[120.3031405,22.6386056],[120.3030923,22.6386009],[120.3030516,22.6386102],[120.3028855,22.6387455],[120.3028386,22.6387814],[120.3027983,22.638826],[120.3027581,22.6388916],[120.3027395,22.6389574],[120.3027456,22.6390432],[120.302746,22.6390491],[120.3027565,22.6391275],[120.3027741,22.6391856],[120.3027995,22.6392302],[120.3028714,22.6393178],[120.3029244,22.6393521],[120.3029713,22.639388],[120.3030196,22.6394115],[120.3030746,22.6394226],[120.3032221,22.63943],[120.3058006,22.6394036],[120.3057808,22.639464],[120.3034869,22.6398167],[120.303415,22.6398256],[120.3033447,22.6398423],[120.303277,22.6398665],[120.3032129,22.6398979],[120.3031532,22.639936],[120.3030987,22.6399803],[120.3030635,22.6400156],[120.3030503,22.6400302],[120.3030085,22.640085],[120.3029758,22.6401404],[120.3029503,22.640199],[120.3029322,22.6402599],[120.3029219,22.6403224],[120.3029195,22.6403855],[120.3029251,22.6404484],[120.3029385,22.6405104],[120.3029595,22.6405704],[120.3029818,22.6406155],[120.302988,22.6406279],[120.3030235,22.6406819],[120.3030718,22.6407312],[120.3030922,22.6407622],[120.303104,22.6407963],[120.3031053,22.6408321],[120.303096,22.6408669],[120.3030768,22.640898],[120.3030491,22.6409231],[120.3030151,22.6409403],[120.3029773,22.6409483],[120.3029385,22.6409465],[120.3029018,22.640935],[120.3028698,22.6409147],[120.302845,22.6408872],[120.3028293,22.6408545],[120.3028238,22.6408191],[120.302829,22.6407836],[120.3028444,22.6407507],[120.3028515,22.6407315],[120.3028626,22.6407014],[120.3028708,22.6406493],[120.3028707,22.6405968],[120.3028621,22.6405448],[120.3028453,22.6404945],[120.3028207,22.6404471],[120.3027888,22.6404036],[120.3027502,22.6403649],[120.3027059,22.6403319],[120.3026567,22.6403055],[120.302592,22.6402851],[120.3025249,22.640273],[120.3024566,22.6402694],[120.3023884,22.6402743],[120.3023216,22.6402878],[120.3022574,22.6403094],[120.302197,22.640339],[120.3021414,22.6403757],[120.3020918,22.6404191],[120.302049,22.6404684],[120.302026,22.6404848],[120.3019979,22.6404924],[120.3019686,22.6404906],[120.3019417,22.6404798],[120.3019205,22.640461],[120.3019075,22.6404368],[120.3019043,22.6404099],[120.3019113,22.6403836],[120.3019276,22.640361],[120.3019512,22.640345],[120.3019794,22.6403374],[120.3020086,22.6403392],[120.3020612,22.6403358],[120.3021122,22.6403237],[120.3021601,22.6403034],[120.3022032,22.6402754],[120.3022402,22.6402408],[120.3022698,22.6402006],[120.3022911,22.6401561],[120.3023059,22.6401109],[120.3023072,22.6401001],[120.3023117,22.6400639],[120.3023103,22.6400184],[120.3023009,22.6399738],[120.3022839,22.6399311],[120.3022595,22.6398916],[120.3022285,22.6398562],[120.3021917,22.639826],[120.30215,22.6398017],[120.3021046,22.6397839],[120.3020567,22.6397732],[120.3020076,22.6397698],[120.3019585,22.6397738],[120.3019108,22.6397852],[120.3018657,22.6398035],[120.3018244,22.6398284],[120.3017857,22.6398567],[120.3017289,22.6398862],[120.3016696,22.6399109],[120.3016081,22.6399306],[120.301545,22.6399452],[120.3014806,22.6399546],[120.3014157,22.6399586],[120.3007129,22.6399524],[120.2993356,22.6399152],[120.2993302,22.6398645],[120.3004903,22.6397382],[120.3005788,22.6397271],[120.3007183,22.6397023],[120.3011823,22.6396033],[120.3014721,22.639562],[120.3015564,22.6395569],[120.301641,22.6395578],[120.3017252,22.6395647],[120.3018089,22.639576],[120.3018759,22.6395846],[120.3019436,22.6395842],[120.3020105,22.6395748],[120.3020753,22.6395566],[120.3021365,22.6395301],[120.302193,22.6394957],[120.3022435,22.6394541],[120.302286,22.6394055],[120.302316,22.6393619],[120.3023402,22.6393153],[120.3023581,22.6392664],[120.3023696,22.6392158],[120.3023744,22.6391643],[120.3023725,22.6391126],[120.3023639,22.6390616],[120.3023487,22.6390118],[120.3022978,22.6389123],[120.3022847,22.6388978],[120.3022654,22.6388879],[120.3022435,22.6388853],[120.302237,22.638807],[120.3022269,22.6386863],[120.3022719,22.6386721],[120.3022766,22.6386441],[120.3022753,22.6385983],[120.3022633,22.6385549],[120.3022359,22.6385023],[120.302203,22.6384524],[120.302165,22.6384057],[120.3021223,22.6383627],[120.3020751,22.6383238],[120.302024,22.6382894],[120.3019696,22.6382597]],[[120.3016242,22.639744],[120.3016356,22.6397502],[120.3016477,22.6397545],[120.3016731,22.6397601],[120.301704,22.6397601],[120.3017254,22.6397576],[120.3017482,22.639752],[120.301769,22.6397396],[120.3017811,22.639726],[120.3017824,22.6397013],[120.3017784,22.6396846],[120.3017744,22.6396734],[120.3017638,22.639664],[120.3017482,22.6396542],[120.3017254,22.6396511],[120.301704,22.6396524],[120.3016886,22.6396561],[120.3016624,22.639666],[120.3016343,22.6396815],[120.3016155,22.6396982],[120.3016101,22.6397124],[120.3016128,22.6397285],[120.3016242,22.639744]],[[120.3027205,22.6396186],[120.3027407,22.6396155],[120.3027668,22.6396094],[120.3027903,22.6395939],[120.3028084,22.6395753],[120.3028104,22.6395499],[120.3028037,22.6395332],[120.3027869,22.639514],[120.3027655,22.6395041],[120.3027299,22.6394955],[120.3026964,22.6394967],[120.302674,22.6395026],[120.3026575,22.6395128],[120.3026401,22.6395308],[120.3026314,22.6395468],[120.3026307,22.6395667],[120.3026448,22.6395846],[120.3026622,22.6396007],[120.3026951,22.6396149],[120.3027205,22.6396186]],[[120.3026344,22.6389794],[120.3026311,22.6389601],[120.3026247,22.6389416],[120.3026152,22.6389242],[120.3026029,22.6389083],[120.3025881,22.6388944],[120.3025712,22.6388828],[120.3025525,22.6388737],[120.3025356,22.6388711],[120.3025188,22.6388746],[120.3025046,22.6388836],[120.3024945,22.6388965],[120.3024893,22.6389154],[120.3024872,22.6389348],[120.3024884,22.6389543],[120.3024927,22.6389733],[120.3025001,22.6389916],[120.3025104,22.6390085],[120.3025234,22.6390239],[120.3025386,22.6390356],[120.3025571,22.6390421],[120.3025769,22.639043],[120.3025961,22.6390384],[120.3026129,22.6390286],[120.3026256,22.6390145],[120.3026331,22.6389976],[120.3026344,22.6389794]],[[120.3031604,22.6397817],[120.3032087,22.6397631],[120.303245,22.6397418],[120.3032644,22.6397198],[120.3032811,22.6396982],[120.3032972,22.6396846],[120.30332,22.6396771],[120.3033495,22.639679],[120.303375,22.6396901],[120.3033945,22.6397005],[120.3034213,22.6397062],[120.3034515,22.639705],[120.3034796,22.6396932],[120.3034944,22.6396802],[120.3035125,22.639648],[120.3035145,22.6396251],[120.3035131,22.6396041],[120.3035044,22.6395831],[120.303487,22.639562],[120.3034602,22.6395472],[120.3034421,22.6395404],[120.3034166,22.6395397],[120.3033877,22.6395465],[120.3033636,22.6395589],[120.3033368,22.6395744],[120.3033086,22.6395905],[120.3032885,22.6395948],[120.3032597,22.6395942],[120.3032476,22.6395602],[120.3032389,22.6395496],[120.3032171,22.6395351],[120.303194,22.6395267],[120.3031691,22.6395205],[120.30314,22.6395165],[120.3031088,22.6395156],[120.3030806,22.6395181],[120.3030404,22.6395329],[120.3030223,22.6395478],[120.3029982,22.6395732],[120.3029854,22.6395998],[120.3029807,22.6396239],[120.3029787,22.6396524],[120.3029841,22.6396734],[120.3029975,22.6397081],[120.3030136,22.6397328],[120.3030297,22.6397489],[120.3030545,22.639765],[120.3030723,22.6397755],[120.3030993,22.6397805],[120.3031283,22.639784],[120.3031604,22.6397817]],[[120.3025308,22.6402394],[120.3025589,22.6402511],[120.3025945,22.6402623],[120.3026387,22.6402666],[120.302679,22.6402672],[120.3027159,22.6402586],[120.3027521,22.6402419],[120.3027775,22.6402171],[120.302797,22.6401837],[120.302803,22.6401472],[120.3027963,22.640115],[120.3027836,22.6400884],[120.3027635,22.6400636],[120.3027433,22.6400494],[120.3027024,22.6400345],[120.3026662,22.6400327],[120.3026421,22.6400351],[120.302618,22.6400407],[120.3025791,22.6400525],[120.3025321,22.6400741],[120.3025053,22.6400939],[120.3024852,22.6401181],[120.3024724,22.6401496],[120.3024745,22.6401831],[120.3024832,22.6401998],[120.3024966,22.640219],[120.3025308,22.6402394]],[[120.3021197,22.639726],[120.3021338,22.6397458],[120.3021519,22.6397631],[120.3021814,22.63977],[120.3022103,22.6397687],[120.3022331,22.639757],[120.3022418,22.6397347],[120.3022404,22.6397143],[120.3022344,22.6396883],[120.302222,22.6396672],[120.3022042,22.6396524],[120.3021834,22.6396443],[120.302162,22.6396449],[120.3021439,22.6396483],[120.3021311,22.6396567],[120.3021217,22.6396678],[120.3021144,22.6396889],[120.3021144,22.639705],[120.3021197,22.639726]],[[120.3037823,22.6395117],[120.3037527,22.639525],[120.3037276,22.6395446],[120.3037085,22.6395693],[120.3036964,22.6395975],[120.3036925,22.6396216],[120.3036959,22.6396459],[120.3037061,22.6396684],[120.3037226,22.6396875],[120.3037439,22.6397019],[120.3037687,22.6397104],[120.3037951,22.6397125],[120.3038248,22.6397098],[120.3038536,22.6397023],[120.3038805,22.6396901],[120.3039054,22.6396756],[120.3039244,22.6396547],[120.3039355,22.6396295],[120.3039377,22.6396023],[120.303933,22.6395758],[120.3039208,22.6395513],[120.3039003,22.6395294],[120.303874,22.6395135],[120.3038441,22.6395049],[120.3038127,22.6395043],[120.3037823,22.6395117]],[[120.3024285,22.6387753],[120.3024251,22.6387625],[120.3024173,22.6387516],[120.302406,22.6387437],[120.3023924,22.6387397],[120.3023782,22.6387402],[120.302365,22.638745],[120.3023543,22.6387536],[120.3023473,22.638765],[120.3023449,22.6387779],[120.3023469,22.6387898],[120.3023527,22.6388006],[120.3023619,22.6388092],[120.3023735,22.6388147],[120.3023864,22.6388167],[120.3023994,22.6388149],[120.3024111,22.6388095],[120.3024211,22.6388002],[120.3024271,22.6387883],[120.3024285,22.6387753]],[[120.3011367,22.6398854],[120.3011643,22.6398887],[120.3011919,22.6398852],[120.3012174,22.639875],[120.3012391,22.6398589],[120.3012553,22.639838],[120.3012645,22.639816],[120.3012674,22.6397926],[120.3012641,22.6397692],[120.3012547,22.6397473],[120.3012399,22.6397281],[120.3012203,22.6397097],[120.3011967,22.6396959],[120.3011703,22.6396874],[120.3011425,22.6396845],[120.3011147,22.6396874],[120.3010884,22.6396959],[120.3010647,22.6397097],[120.301045,22.639728],[120.3010301,22.6397468],[120.3010212,22.6397686],[120.3010189,22.6397918],[120.3010234,22.6398148],[120.3010343,22.6398358],[120.3010509,22.6398534],[120.3010773,22.6398686],[120.3011062,22.6398794],[120.3011367,22.6398854]]]}},{"type":"Feature","properties":{"component":"257770396","name":"高雄舊站","osmType":"way","osmId":257770396,"license":"ODbL-1.0","retrievedAt":"2026-09-06"},"geometry":{"type":"Polygon","coordinates":[[[120.3023996,22.6384535],[120.3026387,22.6384459],[120.3026314,22.6382497],[120.3025998,22.6382507],[120.3025972,22.6381803],[120.3024142,22.6381861],[120.3024169,22.6382592],[120.3023989,22.6382597],[120.3023925,22.6382599],[120.3023996,22.6384535]]]}},{"type":"Feature","properties":{"component":"1298938833","name":"商辦大樓","osmType":"way","osmId":1298938833,"license":"ODbL-1.0","retrievedAt":"2026-09-06"},"geometry":{"type":"Polygon","coordinates":[[[120.3022757,22.639271],[120.3022435,22.6388853],[120.302237,22.638807],[120.3022269,22.6386863],[120.3022161,22.638556],[120.3022135,22.6385292],[120.3022022,22.6385044],[120.3021832,22.638484],[120.3021584,22.6384699],[120.3021302,22.6384633],[120.3021011,22.6384651],[120.3018068,22.638486],[120.3017778,22.6384884],[120.3017509,22.6384988],[120.3017288,22.6385163],[120.3017135,22.6385392],[120.3017064,22.6385653],[120.3017083,22.6385921],[120.3017679,22.6393071],[120.3017705,22.6393339],[120.3017818,22.6393587],[120.3018008,22.6393791],[120.3018256,22.6393933],[120.3018538,22.6393998],[120.3018829,22.6393981],[120.3021772,22.6393772],[120.3022062,22.6393747],[120.3022331,22.6393643],[120.3022552,22.6393468],[120.3022705,22.639324],[120.3022776,22.6392979],[120.3022757,22.639271]]]}},{"type":"Feature","properties":{"component":"1298938834","name":"旅館大樓","osmType":"way","osmId":1298938834,"license":"ODbL-1.0","retrievedAt":"2026-09-06"},"geometry":{"type":"Polygon","coordinates":[[[120.3029767,22.6393021],[120.3031282,22.6392928],[120.3031589,22.6392828],[120.3031893,22.6392643],[120.3032228,22.6392352],[120.3032416,22.6392108],[120.3032637,22.6391802],[120.3032711,22.6391498],[120.3032731,22.6390972],[120.303257,22.6389289],[120.3032447,22.6388927],[120.3032275,22.6388633],[120.3032067,22.6388367],[120.3031782,22.6388144],[120.3031484,22.6387995],[120.3031148,22.6387903],[120.3030645,22.6387859],[120.3029331,22.6387915],[120.3028895,22.6388008],[120.3028721,22.6388057],[120.3028339,22.6388243],[120.3028017,22.6388509],[120.3027789,22.6388763],[120.3027608,22.6389079],[120.3027514,22.6389549],[120.302748,22.6389945],[120.3027456,22.6390432],[120.3027565,22.6391275],[120.3027741,22.6391856],[120.3027995,22.6392302],[120.3028433,22.6392674],[120.3028754,22.6392841],[120.3029137,22.6392934],[120.3029481,22.6392987],[120.3029767,22.6393021]]]}}]}
