{"type":"FeatureCollection","features":[{"type":"Feature","properties":{"component":"544377825","name":"高鐵臺中","osmType":"way","osmId":544377825,"license":"ODbL-1.0","retrievedAt":"2026-09-06"},"geometry":{"type":"Polygon","coordinates":[[[120.6158372,24.1131956],[120.6159235,24.1130675],[120.6161479,24.1130514],[120.6162566,24.1131634],[120.616181,24.1118748],[120.6161452,24.1114292],[120.6161134,24.1111708],[120.6161026,24.1110836],[120.6160573,24.110715],[120.6160473,24.1106342],[120.6160047,24.1102878],[120.6159401,24.1099826],[120.6158552,24.1101054],[120.6156313,24.1101315],[120.6155225,24.1100292],[120.615394,24.1100417],[120.6153032,24.1100516],[120.6150666,24.1100765],[120.6150065,24.1101239],[120.6151842,24.110252],[120.6153467,24.1103772],[120.6154327,24.1103697],[120.6154963,24.1114788],[120.615543,24.1119249],[120.6157693,24.1130155],[120.6158372,24.1131956]]]}},{"type":"Feature","properties":{"component":"337921979","name":"新烏日","osmType":"way","osmId":337921979,"license":"ODbL-1.0","retrievedAt":"2026-09-06"},"geometry":{"type":"Polygon","coordinates":[[[120.6148224,24.1099072],[120.61383,24.1100113],[120.6135969,24.1100358],[120.6135053,24.1100417],[120.6134068,24.1100407],[120.6133197,24.1100372],[120.6132665,24.1100337],[120.6132367,24.109749],[120.6132859,24.1097244],[120.6133709,24.1096992],[120.6134656,24.1096817],[120.6135497,24.1096704],[120.6141507,24.1096097],[120.6141479,24.1095873],[120.6141167,24.1093307],[120.6142284,24.1093216],[120.6143634,24.1093116],[120.6143802,24.1094829],[120.6143894,24.1095874],[120.6147916,24.109549],[120.6149627,24.1095425],[120.6150341,24.1094397],[120.6151103,24.1094613],[120.6151181,24.109548],[120.6151799,24.1095577],[120.6152324,24.1095802],[120.6152455,24.1097312],[120.6152089,24.1097743],[120.6151372,24.1098163],[120.6150616,24.1098395],[120.6153032,24.1100516],[120.6150666,24.1100765],[120.6148224,24.1099072]]]}},{"type":"Feature","properties":{"component":"862779522","name":"中捷高鐵臺中","osmType":"way","osmId":862779522,"license":"ODbL-1.0","retrievedAt":"2026-09-06"},"geometry":{"type":"Polygon","coordinates":[[[120.6135969,24.1100358],[120.61383,24.1100113],[120.6148224,24.1099072],[120.6148983,24.1099598],[120.6150666,24.1100765],[120.6140257,24.1101855],[120.6139279,24.1101958],[120.6133056,24.110261],[120.6132822,24.1100692],[120.6135969,24.1100358]]]}},{"type":"Feature","properties":{"component":"862779521","name":"轉乘通廊","osmType":"way","osmId":862779521,"license":"ODbL-1.0","retrievedAt":"2026-09-06"},"geometry":{"type":"Polygon","coordinates":[[[120.6139604,24.1104863],[120.6139279,24.1101958],[120.6140257,24.1101855],[120.6140582,24.1104772],[120.6139604,24.1104863]]]}},{"type":"Feature","properties":{"component":"862779520","name":"轉乘通廊","osmType":"way","osmId":862779520,"license":"ODbL-1.0","retrievedAt":"2026-09-06"},"geometry":{"type":"Polygon","coordinates":[[[120.6138815,24.110493],[120.6139604,24.1104863],[120.6140582,24.1104772],[120.6140989,24.1104741],[120.6141096,24.1105749],[120.6136456,24.1106228],[120.6136373,24.1105546],[120.6138859,24.1105266],[120.6138815,24.110493]]]}}]}
