{"type":"FeatureCollection","features":[{"type":"Feature","properties":{"component":"232201616","name":"板橋車站","osmType":"way","osmId":232201616,"license":"ODbL-1.0","retrievedAt":"2026-09-06"},"geometry":{"type":"Polygon","coordinates":[[[121.4630384,25.0140281],[121.4632812,25.0143007],[121.4634805,25.0145297],[121.4637105,25.0148013],[121.4639294,25.0150597],[121.4640357,25.0151923],[121.4643447,25.0149756],[121.4644589,25.0149012],[121.4646682,25.0147649],[121.4647541,25.014655],[121.4647868,25.0146131],[121.4648011,25.0145948],[121.464828,25.0145603],[121.4648975,25.0145571],[121.4649462,25.0145067],[121.464933,25.0144633],[121.4649035,25.0144224],[121.4648479,25.0144082],[121.4647905,25.0144192],[121.4646463,25.0142933],[121.4643145,25.0141988],[121.4640382,25.0140287],[121.4640085,25.0140014],[121.4638002,25.0138099],[121.4637629,25.0137468],[121.4636212,25.0135076],[121.4635413,25.0134666],[121.4635378,25.0134257],[121.4635152,25.0133848],[121.4634666,25.0133643],[121.463411,25.0133848],[121.463378,25.013421],[121.4632664,25.0134933],[121.4630548,25.0136304],[121.4631248,25.0137216],[121.4632109,25.013834],[121.4632564,25.0138933],[121.4630384,25.0140281]]]}},{"type":"Feature","properties":{"component":"1491394339","name":"板橋站塔樓","osmType":"way","osmId":1491394339,"license":"ODbL-1.0","retrievedAt":"2026-09-06"},"geometry":{"type":"Polygon","coordinates":[[[121.4633074,25.0143355],[121.46366,25.0141003],[121.4634127,25.0137958],[121.4630601,25.014031],[121.4633074,25.0143355]]]}},{"type":"Feature","properties":{"component":"1491394340","name":"板橋站塔樓","osmType":"way","osmId":1491394340,"license":"ODbL-1.0","retrievedAt":"2026-09-06"},"geometry":{"type":"Polygon","coordinates":[[[121.4636912,25.0148771],[121.464051,25.014651],[121.4638132,25.0143404],[121.4634535,25.0145664],[121.4636912,25.0148771]]]}},{"type":"Feature","properties":{"component":"818694787","name":"環狀線板橋","osmType":"way","osmId":818694787,"license":"ODbL-1.0","retrievedAt":"2026-09-06"},"geometry":{"type":"Polygon","coordinates":[[[121.4650232,25.0150577],[121.4650318,25.0150519],[121.4648682,25.0148507],[121.4648573,25.0148373],[121.4641296,25.0153232],[121.4643042,25.0155379],[121.4645349,25.0153838],[121.4645637,25.0154192],[121.4648199,25.0152478],[121.4647913,25.0152126],[121.4649495,25.015107],[121.464978,25.0151421],[121.4650518,25.0150927],[121.4650232,25.0150577]]]}}]}
