{"type":"FeatureCollection","features":[{"type":"Feature","properties":{"component":"r9351022:1","name":"高鐵臺南","osmType":"relation","osmId":9351022,"license":"ODbL-1.0","retrievedAt":"2026-09-06"},"geometry":{"type":"Polygon","coordinates":[[[120.2859295,22.9247877],[120.2857562,22.9251451],[120.2856099,22.9251495],[120.2853483,22.9250544],[120.2853873,22.9249635],[120.2852916,22.9248846],[120.2856307,22.9241652],[120.2857093,22.924172],[120.2857415,22.9241849],[120.2857906,22.9242291],[120.2858371,22.9241305],[120.2859734,22.924185],[120.2860251,22.9242057],[120.2859964,22.9242666],[120.286155,22.92433],[120.2860851,22.9244782],[120.2859757,22.9247102],[120.2859536,22.9247473],[120.2859295,22.9247877]]]}},{"type":"Feature","properties":{"component":"r9351022:0","name":"高鐵月台棚","osmType":"relation","osmId":9351022,"license":"ODbL-1.0","retrievedAt":"2026-09-06"},"geometry":{"type":"Polygon","coordinates":[[[120.2861469,22.9248522],[120.2861663,22.9248173],[120.2861947,22.9247659],[120.2868495,22.9234698],[120.2869694,22.9235212],[120.2855875,22.9262578],[120.2854641,22.9262049],[120.2861469,22.9248522]]]}},{"type":"Feature","properties":{"component":"266850895","name":"高鐵月台棚","osmType":"way","osmId":266850895,"license":"ODbL-1.0","retrievedAt":"2026-09-06"},"geometry":{"type":"Polygon","coordinates":[[[120.2871353,22.9235427],[120.2872305,22.9235874],[120.2858736,22.9262801],[120.2857927,22.9262521],[120.2871353,22.9235427]]]}},{"type":"Feature","properties":{"component":"316034163","name":"沙崙","osmType":"way","osmId":316034163,"license":"ODbL-1.0","retrievedAt":"2026-09-06"},"geometry":{"type":"Polygon","coordinates":[[[120.2867552,22.923011],[120.2868677,22.9230579],[120.2862679,22.9242776],[120.2861977,22.9242483],[120.2860291,22.924178],[120.2862031,22.9238241],[120.2863296,22.9238769],[120.2867552,22.923011]]]}}]}
