{"type":"FeatureCollection","features":[{"type":"Feature","properties":{"component":"23547222","name":"高鐵桃園","osmType":"way","osmId":23547222,"license":"ODbL-1.0","retrievedAt":"2026-09-06"},"geometry":{"type":"Polygon","coordinates":[[[121.2143597,25.0129977],[121.2144325,25.0130699],[121.2144935,25.0131302],[121.2145254,25.0131626],[121.2146959,25.0133363],[121.2148464,25.0134895],[121.2148736,25.0134671],[121.2149493,25.0134078],[121.2149982,25.0133707],[121.2151567,25.0135307],[121.2153954,25.0133265],[121.2152408,25.0131652],[121.2152922,25.0131213],[121.2153553,25.0130675],[121.2153839,25.0130432],[121.2152304,25.012893],[121.2150512,25.0127178],[121.2148952,25.0125652],[121.2148602,25.0125938],[121.2147764,25.012658],[121.2147458,25.0126815],[121.214579,25.012524],[121.2143277,25.0127376],[121.2144903,25.0128892],[121.2144638,25.0129113],[121.2143947,25.0129687],[121.2143597,25.0129977]]]}},{"type":"Feature","properties":{"component":"560119012","name":"機捷 A18","osmType":"way","osmId":560119012,"license":"ODbL-1.0","retrievedAt":"2026-09-06"},"geometry":{"type":"Polygon","coordinates":[[[121.2146951,25.0144357],[121.2147893,25.0143555],[121.2148008,25.0143747],[121.2149195,25.0142788],[121.2141162,25.013481],[121.2142325,25.0133817],[121.214261,25.013409],[121.2143112,25.0133672],[121.2142687,25.0133183],[121.2142343,25.0132843],[121.2142066,25.0132567],[121.2141974,25.0132466],[121.2140333,25.0133938],[121.2139463,25.0133096],[121.2137889,25.0134469],[121.2136826,25.0134317],[121.2137803,25.0135316],[121.21386,25.0136076],[121.2146951,25.0144357]]]}}]}
