{
  "type": "Feature",
  "properties": {
    "osmType": "way",
    "osmId": 23641610,
    "name": "臺北車站",
    "source": "https://www.openstreetmap.org/way/23641610",
    "license": "ODbL-1.0",
    "retrievedAt": "2026-09-06",
    "upstreamHeightM": 30,
    "upstreamRoofHeightM": 18,
    "note": "OSM 高度標註未經測繪核實；不相加推定真實總高。"
  },
  "geometry": {
    "type": "Polygon",
    "coordinates": [
      [
        [
          121.51623,
          25.0472861
        ],
        [
          121.5165884,
          25.0472248
        ],
        [
          121.5166671,
          25.0472113
        ],
        [
          121.5166883,
          25.0472077
        ],
        [
          121.516721,
          25.0472021
        ],
        [
          121.5167548,
          25.0471963
        ],
        [
          121.5170618,
          25.0471438
        ],
        [
          121.5171795,
          25.0471237
        ],
        [
          121.5172148,
          25.0471176
        ],
        [
          121.5172585,
          25.0471102
        ],
        [
          121.5175414,
          25.0470618
        ],
        [
          121.5175554,
          25.0470594
        ],
        [
          121.5177641,
          25.0470237
        ],
        [
          121.5178221,
          25.0473019
        ],
        [
          121.5178802,
          25.0475809
        ],
        [
          121.5179384,
          25.0478599
        ],
        [
          121.5179985,
          25.0481487
        ],
        [
          121.5176727,
          25.0482044
        ],
        [
          121.5172276,
          25.0482806
        ],
        [
          121.5167995,
          25.0483538
        ],
        [
          121.5164644,
          25.0484111
        ],
        [
          121.5164048,
          25.0481248
        ],
        [
          121.5163475,
          25.0478502
        ],
        [
          121.5162903,
          25.0475754
        ],
        [
          121.51623,
          25.0472861
        ]
      ]
    ]
  }
}
