{"type":"FeatureCollection","features":[{"type":"Feature","properties":{"component":"111991261","name":"高鐵左營","osmType":"way","osmId":111991261,"license":"ODbL-1.0","retrievedAt":"2026-09-06"},"geometry":{"type":"Polygon","coordinates":[[[120.3082539,22.687482],[120.3083643,22.6875751],[120.3085487,22.6873888],[120.3079149,22.6868548],[120.3072126,22.6862631],[120.3071881,22.6862876],[120.3070388,22.6864386],[120.3071698,22.686549],[120.3068299,22.6868924],[120.3079266,22.6878127],[120.3082539,22.687482]]]}},{"type":"Feature","properties":{"component":"303296097","name":"臺鐵新左營","osmType":"way","osmId":303296097,"license":"ODbL-1.0","retrievedAt":"2026-09-06"},"geometry":{"type":"Polygon","coordinates":[[[120.3076344,22.6882666],[120.3076594,22.6882412],[120.307702,22.688198],[120.307801,22.6880976],[120.3077403,22.6880467],[120.3079508,22.6878331],[120.3079266,22.6878127],[120.3068299,22.6868924],[120.3068001,22.6868674],[120.3065565,22.6871145],[120.3064906,22.6871814],[120.3064569,22.6872156],[120.3064241,22.6872488],[120.3067043,22.687484],[120.3066409,22.6875458],[120.307359,22.6881479],[120.307421,22.6880875],[120.3076344,22.6882666]]]}}]}
