{"type":"FeatureCollection","features":[{"type":"Feature","properties":{"component":"321663134","name":"高鐵新竹","osmType":"way","osmId":321663134,"license":"ODbL-1.0","retrievedAt":"2026-09-06"},"geometry":{"type":"Polygon","coordinates":[[[121.0403829,24.8098835],[121.0404752,24.8098156],[121.0406871,24.809772],[121.0408042,24.809781],[121.0404958,24.8086712],[121.0406177,24.8085352],[121.0407637,24.8083213],[121.040567,24.8081376],[121.04031,24.8079101],[121.0400267,24.8067627],[121.039925,24.8067891],[121.0397116,24.8068578],[121.0396798,24.8068708],[121.0399812,24.8080638],[121.0397486,24.8081333],[121.0396393,24.8081627],[121.0399347,24.8086601],[121.0399892,24.8087397],[121.0401033,24.808906],[121.0403829,24.8098835]]]}},{"type":"Feature","properties":{"component":"321663135","name":"六家","osmType":"way","osmId":321663135,"license":"ODbL-1.0","retrievedAt":"2026-09-06"},"geometry":{"type":"Polygon","coordinates":[[[121.0392269,24.8073788],[121.0395605,24.807358],[121.0395809,24.8076742],[121.0395834,24.8076958],[121.0395471,24.8076968],[121.039551,24.8077852],[121.03941,24.8077952],[121.0392797,24.8078027],[121.0392723,24.8076993],[121.0392511,24.8077006],[121.0392492,24.8076446],[121.0392269,24.8073788]]]}}]}
