{
  "type": "Feature",
  "properties": {
    "osmId": 34170948,
    "name": "高雄85大樓"
  },
  "geometry": {
    "type": "Polygon",
    "coordinates": [
      [
        [
          120.3006943,
          22.6111055
        ],
        [
          120.3006701,
          22.6111703
        ],
        [
          120.3005537,
          22.6114881
        ],
        [
          120.3004931,
          22.6116535
        ],
        [
          120.3004486,
          22.611776
        ],
        [
          120.3003876,
          22.6119437
        ],
        [
          120.3002703,
          22.6122662
        ],
        [
          120.3002487,
          22.6123245
        ],
        [
          120.2996261,
          22.6121282
        ],
        [
          120.2996464,
          22.6120732
        ],
        [
          120.2997634,
          22.6117516
        ],
        [
          120.2998248,
          22.6115829
        ],
        [
          120.2998698,
          22.6114591
        ],
        [
          120.2999284,
          22.611299
        ],
        [
          120.3000468,
          22.6109759
        ],
        [
          120.3000721,
          22.6109079
        ],
        [
          120.3006943,
          22.6111055
        ]
      ]
    ]
  }
}
