{
  "type": "Feature",
  "properties": {
    "osmId": 1052759757,
    "name": "中正紀念堂"
  },
  "geometry": {
    "type": "Polygon",
    "coordinates": [
      [
        [
          121.5215715,
          25.0353922
        ],
        [
          121.5213738,
          25.0350601
        ],
        [
          121.5213651,
          25.0350644
        ],
        [
          121.5211699,
          25.0351598
        ],
        [
          121.5211408,
          25.0351133
        ],
        [
          121.5211099,
          25.0350615
        ],
        [
          121.5210357,
          25.0349364
        ],
        [
          121.5210111,
          25.0348954
        ],
        [
          121.5209818,
          25.0348435
        ],
        [
          121.5211769,
          25.0347481
        ],
        [
          121.5211856,
          25.0347439
        ],
        [
          121.5209856,
          25.0344078
        ],
        [
          121.5214481,
          25.0341818
        ],
        [
          121.5214917,
          25.0341605
        ],
        [
          121.5215659,
          25.0341243
        ],
        [
          121.5216008,
          25.0341072
        ],
        [
          121.5220633,
          25.0338812
        ],
        [
          121.5226492,
          25.0348656
        ],
        [
          121.5221867,
          25.0350916
        ],
        [
          121.5221518,
          25.0351087
        ],
        [
          121.5220776,
          25.0351449
        ],
        [
          121.522034,
          25.0351662
        ],
        [
          121.5215715,
          25.0353922
        ]
      ]
    ]
  }
}
